CELESTIS-02             
1 25160U 98007D   20156.87929366 -.00000106  00000-0  10463-4 0  9998
2 25160 107.9649 212.3960 0064110 300.3919 149.2874 14.21542558157333
CELESTIS-03             
1 26034U 99070C   20156.83835258  .00001344  00000-0  86930-4 0  9998
2 26034  98.2480  88.7989 0013674 116.8122 243.4506 15.10105156108827
LACMA ENOCH             
1 43777U 18099V   20157.17607269  .00007057  00000-0  58315-3 0  9992
2 43777  97.7424 230.3064 0013233 217.3438 142.6866 14.99191821 82133
